NEXTSAT-1               
1 43811U 18099BF  26068.68342010  .00004546  00000+0  29857-3 0  9992
2 43811  97.4203 114.8574 0011320 323.9610  36.0854 15.08057555396886
STARLINK-2135           
1 47408U 21005BM  26068.27876359  .00000684  00000+0  64833-4 0  9995
2 47408  53.0558  33.4642 0001427  97.2459 262.8693 15.06388595283406
